OBJECT_NAME,OBJECT_ID,EPOCH,MEAN_MOTION,ECCENTRICITY,INCLINATION,RA_OF_ASC_NODE,ARG_OF_PERICENTER,MEAN_ANOMALY,EPHEMERIS_TYPE,CLASSIFICATION_TYPE,NORAD_CAT_ID,ELEMENT_SET_NO,REV_AT_EPOCH,BSTAR,MEAN_MOTION_DOT,MEAN_MOTION_DDOT
LEMUR-2-ALISIA,2025-009DB,2026-06-14T22:31:08.464224,15.02743635,.0001726,97.6964,248.1233,190.7446,169.3742,0,U,62706,999,9982,.52744E-3,.6991E-4,0
LEMUR-2-ROUNDTRIPPER,2025-009DG,2026-06-15T03:56:16.384128,15.03763626,.000513,97.7260,248.8457,136.8305,223.3323,0,U,62711,999,7732,.54531493E-3,.7431E-4,0
LEMUR-2-MYNAMEISJEFF,2025-009DH,2026-06-15T05:29:48.890112,15.03772253,.00033582,97.7307,249.2906,157.9020,202.2351,0,U,62712,999,7733,.49081922E-3,.6682E-4,0
LEMUR-2-LEIA-PHILIP,2025-052AN,2026-06-15T03:09:38.251872,14.97315872,.00023607,97.6845,58.1173,215.8850,144.2214,0,U,63246,999,6836,.10706896E-3,.1184E-4,0
LEMUR-2-LIA-MARTIN,2025-052AQ,2026-06-15T06:30:16.156512,14.97792782,.00027919,97.6908,58.7269,158.6068,201.5271,0,U,63248,999,6839,.27617716E-3,.3186E-4,0
LEMUR-2-DELOITTE-1,2025-052BB,2026-06-15T05:55:54.131520,14.97589635,.00033105,97.6924,59.0317,101.3242,258.8352,0,U,63259,999,6840,.32470184E-3,.3736E-4,0
LEMUR-2-EMERSONROSE,2025-052BD,2026-06-15T03:46:46.742880,14.99067505,.00018508,97.6894,59.4988,66.8748,293.2670,0,U,63261,999,6843,.25463596E-3,.3032E-4,0
LEMUR-2-MARACHE-FRAN,2025-052BE,2026-06-15T03:13:14.317536,15.00085585,.0005584,97.6952,59.7875,30.3529,329.8017,0,U,63262,999,6845,.4157987E-3,.5125E-4,0
LEMUR-2-THEFALCONER,2025-052BG,2026-06-15T06:33:29.138688,14.97379567,.0002916,97.6876,58.6807,39.5797,320.5638,0,U,63264,999,6840,.20660239E-3,.2343E-4,0
LEMUR-2-UNTITLED-SC,2025-061A,2026-06-15T04:06:45.388224,15.13463322,.00169152,97.5630,141.5477,272.3793,87.5502,0,U,63351,999,6728,.18872523E-3,.3319E-4,0
LEMUR-2-ESPERANZA,2025-061B,2026-06-15T05:09:12.856032,15.13557141,.00165729,97.5639,141.6837,271.4480,88.4852,0,U,63352,999,6729,.22907217E-3,.4053E-4,0
LEMUR-2-KREMPEL-BRO2,2025-061C,2026-06-15T05:48:52.451136,15.13994025,.00173987,97.5686,142.2420,262.9246,97.0006,0,U,63353,999,6731,.18646521E-3,.3328E-4,0
LEMUR-2-THERMORAPTOR,2025-061D,2026-06-15T03:48:01.955808,15.14071971,.00171848,97.5691,142.2339,262.1996,97.7285,0,U,63354,999,6730,.22279894E-3,.3999E-4,0
LEMUR-2-NEUROSPICY,2025-061E,2026-06-15T04:42:37.586304,15.14188740,.00149991,97.5620,141.8994,266.0433,93.9084,0,U,63355,999,6731,.21306291E-3,.3831E-4,0
LEMUR-2-TILLINFINITY,2025-061F,2026-06-15T03:59:23.179200,15.14772904,.00162906,97.5602,142.1585,252.9081,107.0367,0,U,63356,999,6733,.20360617E-3,.3721E-4,0
LEMUR-2-KREMPEL-BRO1,2025-061G,2026-06-15T04:55:56.949600,15.14580036,.0016929,97.5605,142.1143,254.0544,105.8823,0,U,63357,999,6733,.22890593E-3,.417E-4,0
LEMUR-2-LANGER2SPACE,2025-061H,2026-06-14T23:12:55.416384,15.14274798,.00148765,97.5607,141.6922,265.0068,94.9466,0,U,63358,999,6728,.22528381E-3,.4064E-4,0
LEMUR-2-BALTO,2025-052BH,2026-06-15T06:03:16.047648,15.00068008,.00069089,97.6898,59.8837,63.0874,297.1055,0,U,63395,999,6847,.40447917E-3,.4983E-4,0
LEMUR-2-KRISH,2025-135AK,2026-06-15T06:26:52.478016,14.96191689,.00017305,97.7746,281.1577,102.3277,257.8138,0,U,64561,999,5363,.43663142E-3,.4864E-4,0
LEMUR-2-HUBBLE-4,2025-135AP,2026-06-15T06:14:28.104864,14.93192334,.00010591,97.7697,280.1894,320.8050,39.3093,0,U,64565,999,5358,.15404388E-3,.1552E-4,0
LEMUR-2-SEJONG-2,2025-135BL,2026-06-15T07:10:56.198784,14.96684129,.00040112,97.7690,281.3330,347.3924,12.7196,0,U,64586,999,5366,.28016795E-3,.314E-4,0
LEMUR-2-HUBBLE-5,2025-135BT,2026-06-15T06:46:30.265536,14.94131364,.00052455,97.7716,280.8422,1.0837,359.0393,0,U,64840,999,5362,.12923985E-3,.1325E-4,0
LEMUR-2-KARENDARRELL,2025-135BU,2026-06-15T07:36:43.808544,15.00087075,.00095453,97.7681,282.5279,209.3739,150.6949,0,U,64841,999,5373,.50283435E-3,.6214E-4,0
LEMUR-2-LUCILLE-ROSE,2025-135BV,2026-06-14T13:22:23.632608,15.00126663,.00109568,97.7771,281.7859,292.9349,67.0717,0,U,65403,999,4824,.51464518E-3,.637E-4,0
LEMUR-2-AFFIE-WAUWIE,2025-248C,2026-06-15T03:48:26.154720,15.27089116,.00076165,45.3893,125.9769,70.2843,289.8867,0,U,66295,999,3428,.5463527E-3,.14524E-3,0
LEMUR-2-DEANANDMAEVE,2025-276N,2026-06-15T03:24:15.285312,15.19713195,.00059262,97.4218,239.6511,21.6090,338.5394,0,U,66678,999,3010,.31212441E-3,.6603E-4,0
LEMUR-2-STAS-GORBUK,2025-276W,2026-06-15T03:44:27.789216,15.19361958,.00052453,97.4253,239.7201,21.7605,338.3851,0,U,66686,999,3010,.24412457E-3,.5096E-4,0
LEMUR-2-TEODOR,2025-276DG,2026-06-15T03:24:18.832032,15.21032247,.0002099,97.4156,239.9399,117.6264,242.5185,0,U,66768,999,3013,.26244423E-3,.5757E-4,0
LEMUR-2-LAILA,2025-276DQ,2026-06-15T04:21:53.904096,15.21252484,.00021063,97.4180,240.0988,138.4415,221.6981,0,U,66776,999,3014,.2143475E-3,.4719E-4,0
