LEMUR-2-ALISIA          
1 62706U 25009DB  26165.93829241  .00006991  00000+0  52744-3 0  9994
2 62706  97.6964 248.1233 0001726 190.7446 169.3742 15.02743635 99820
LEMUR-2-ROUNDTRIPPER    
1 62711U 25009DG  26166.16407852  .00007431  00000+0  54531-3 0  9992
2 62711  97.7260 248.8457 0005130 136.8305 223.3323 15.03763626 77329
LEMUR-2-MYNAMEISJEFF    
1 62712U 25009DH  26166.22903808  .00006682  00000+0  49082-3 0  9994
2 62712  97.7307 249.2906 0003358 157.9020 202.2351 15.03772253 77338
LEMUR-2-LEIA-PHILIP     
1 63246U 25052AN  26166.13169273  .00001184  00000+0  10707-3 0  9999
2 63246  97.6845  58.1173 0002360 215.8850 144.2214 14.97315872 68365
LEMUR-2-LIA-MARTIN      
1 63248U 25052AQ  26166.27102033  .00003186  00000+0  27618-3 0  9990
2 63248  97.6908  58.7269 0002791 158.6068 201.5271 14.97792782 68394
LEMUR-2-DELOITTE-1      
1 63259U 25052BB  26166.24715430  .00003736  00000+0  32470-3 0  9993
2 63259  97.6924  59.0317 0003310 101.3242 258.8352 14.97589635 68407
LEMUR-2-EMERSONROSE     
1 63261U 25052BD  26166.15748545  .00003032  00000+0  25464-3 0  9993
2 63261  97.6894  59.4988 0001850  66.8748 293.2670 14.99067505 68435
LEMUR-2-MARACHE-FRAN    
1 63262U 25052BE  26166.13419349  .00005125  00000+0  41580-3 0  9991
2 63262  97.6952  59.7875 0005584  30.3529 329.8017 15.00085585 68454
LEMUR-2-THEFALCONER     
1 63264U 25052BG  26166.27325392  .00002343  00000+0  20660-3 0  9997
2 63264  97.6876  58.6807 0002916  39.5797 320.5638 14.97379567 68401
LEMUR-2-UNTITLED-SC     
1 63351U 25061A   26166.17135866  .00003319  00000+0  18873-3 0  9995
2 63351  97.5630 141.5477 0016915 272.3793  87.5502 15.13463322 67284
LEMUR-2-ESPERANZA       
1 63352U 25061B   26166.21473213  .00004053  00000+0  22907-3 0  9991
2 63352  97.5639 141.6837 0016572 271.4480  88.4852 15.13557141 67299
LEMUR-2-KREMPEL-BRO2    
1 63353U 25061C   26166.24227374  .00003328  00000+0  18647-3 0  9990
2 63353  97.5686 142.2420 0017398 262.9246  97.0006 15.13994025 67315
LEMUR-2-THERMORAPTOR    
1 63354U 25061D   26166.15835597  .00003999  00000+0  22280-3 0  9995
2 63354  97.5691 142.2339 0017184 262.1996  97.7285 15.14071971 67300
LEMUR-2-NEUROSPICY      
1 63355U 25061E   26166.19626836  .00003831  00000+0  21306-3 0  9997
2 63355  97.5620 141.8994 0014999 266.0433  93.9084 15.14188740 67314
LEMUR-2-TILLINFINITY    
1 63356U 25061F   26166.16624050  .00003721  00000+0  20361-3 0  9999
2 63356  97.5602 142.1585 0016290 252.9081 107.0367 15.14772904 67338
LEMUR-2-KREMPEL-BRO1    
1 63357U 25061G   26166.20552025  .00004170  00000+0  22891-3 0  9996
2 63357  97.5605 142.1143 0016929 254.0544 105.8823 15.14580036 67334
LEMUR-2-LANGER2SPACE    
1 63358U 25061H   26165.96730806  .00004064  00000+0  22528-3 0  9993
2 63358  97.5607 141.6922 0014876 265.0068  94.9466 15.14274798 67288
LEMUR-2-BALTO           
1 63395U 25052BH  26166.25226907  .00004983  00000+0  40448-3 0  9990
2 63395  97.6898  59.8837 0006908  63.0874 297.1055 15.00068008 68478
LEMUR-2-KRISH           
1 64561U 25135AK  26166.26866294  .00004864  00000+0  43663-3 0  9998
2 64561  97.7746 281.1577 0001730 102.3277 257.8138 14.96191689 53633
LEMUR-2-HUBBLE-4        
1 64565U 25135AP  26166.26004751  .00001552  00000+0  15404-3 0  9997
2 64565  97.7697 280.1894 0001059 320.8050  39.3093 14.93192334 53585
LEMUR-2-SEJONG-2        
1 64586U 25135BL  26166.29926156  .00003140  00000+0  28017-3 0  9994
2 64586  97.7690 281.3330 0004011 347.3924  12.7196 14.96684129 53663
LEMUR-2-HUBBLE-5        
1 64840U 25135BT  26166.28229474  .00001325  00000+0  12924-3 0  9998
2 64840  97.7716 280.8422 0005245   1.0837 359.0393 14.94131364 53626
LEMUR-2-KARENDARRELL    
1 64841U 25135BU  26166.31717371  .00006214  00000+0  50283-3 0  9993
2 64841  97.7681 282.5279 0009545 209.3739 150.6949 15.00087075 53739
LEMUR-2-LUCILLE-ROSE    
1 65403U 25135BV  26165.55721797  .00006370  00000+0  51465-3 0  9996
2 65403  97.7771 281.7859 0010956 292.9349  67.0717 15.00126663 48243
LEMUR-2-AFFIE-WAUWIE    
1 66295U 25248C   26166.15863605  .00014524  00000+0  54635-3 0  9995
2 66295  45.3893 125.9769 0007616  70.2843 289.8867 15.27089116 34280
LEMUR-2-DEANANDMAEVE    
1 66678U 25276N   26166.14184358  .00006603  00000+0  31212-3 0  9996
2 66678  97.4218 239.6511 0005926  21.6090 338.5394 15.19713195 30104
LEMUR-2-STAS-GORBUK     
1 66686U 25276W   26166.15587719  .00005096  00000+0  24412-3 0  9993
2 66686  97.4253 239.7201 0005245  21.7605 338.3851 15.19361958 30108
LEMUR-2-TEODOR          
1 66768U 25276DG  26166.14188463  .00005757  00000+0  26244-3 0  9995
2 66768  97.4156 239.9399 0002099 117.6264 242.5185 15.21032247 30139
LEMUR-2-LAILA           
1 66776U 25276DQ  26166.18187389  .00004719  00000+0  21435-3 0  9998
2 66776  97.4180 240.0988 0002106 138.4415 221.6981 15.21252484 30140
